Name,Description,Latitude,Longitude,Address,Est Capacity (M gallons/year),Rail Access
Darling Ingredients - Irving Rendering Plant,"Processes UCO into biofuels; rail for outbound fats.",32.812,-96.936,"801 E 3rd St, Irving, TX 75060",50+
Darling Ingredients - Blue Earth Biodiesel,"UCO aggregation; trucks to rail possible.",43.648,-94.102,"1126 N Main St, Blue Earth, MN 56013",30
Darling Ingredients - Wahoo Rendering,"High-volume UCO/YG processing; direct rail loading.",41.215,-96.620,"2050 County Rd J, Wahoo, NE 68066",40
Mahoney Environmental - Joliet Processing Facility,"UCO collection hub; transloads to rail.",41.517,-88.097,"612 S Chicago St, Joliet, IL 60436",25
Mahoney Environmental - Las Vegas Depot,"West Coast aggregation; third-party rail use.",36.098,-115.176,"5050 S Las Vegas Blvd, Las Vegas, NV 89119",15
Safety-Kleen - Fallon Re-Refinery,"Used oil/UCO refining; rail for tanker shipments.",39.473,-118.778,"4650 Reno Hwy, Fallon, NV 89406",20
Safety-Kleen - Newark Re-Refinery,"East Coast hub; transfers from trucks to rail.",40.749,-74.163,"76 Passaic Ave, Newark, NJ 07104",30
Safety-Kleen - Abilene Service Center,"UCO collection/processing; potential transload.",32.449,-99.732,"4234 Oil Belt Ln, Abilene, TX 79605",10
Sanimax - DeForest Rendering Plant,"Processes UCO into biodiesel feedstock; rail outbound.",43.247,-89.341,"5411 Packets Ct, DeForest, WI 53532",35
Sanimax - South St. Paul Facility,"Midwest UCO hub; trucks to nearby yards.",44.883,-93.035,"505 Hardman Ave S, South St Paul, MN 55075",25
Baker Commodities - Kerman Rendering Plant,"Aggregates UCO from West Coast collectors; renders to yellow grease for biofuels.",36.718,-120.060,"16801 W Jensen Ave, Kerman, CA 93630",20
Baker Commodities - Vernon Plant,"High-volume UCO processing; supplies to biofuel end users.",34.007,-118.193,"4020 Bandini Blvd, Vernon, CA 90058",15
Eazy Grease - Winnsboro Processing,"Southeast hub; merged with Liquid Recovery; rail potential.",34.380,-81.087,"100 Industrial Park Rd, Winnsboro, SC 29180",12
Denali - Ann Arbor Compost Facility,"Food waste/UCO recycling; third-party rail.",42.226,-83.699,"4145 Platt Rd, Ann Arbor, MI 48108",10
Denali - Fort Myers Depot,"FL aggregation; trucks to ports/rail.",26.565,-81.752,"12300 Treeline Ave, Fort Myers, FL 33913",8
Grand Natural Inc. - Houston Collection Hub,"Gulf Coast UCO; potential transload.",29.938,-95.415,"12345 North Fwy, Houston, TX 77060",10
Green Energy Biofuel - Winnsboro Plant,"High savings on shipping; direct rail for biofuels.",34.380,-81.087,"100 Industrial Park Rd, Winnsboro, SC 29180",15
Renewable Energy Group - Seneca Biodiesel Plant,"UCO to biodiesel; rail for feedstocks.",42.910,-76.800,"3663 State Rte 414, Seneca Falls, NY 13148",20
Heritage-Crystal Clean - Indianapolis Re-Refinery,"Used oil/UCO processing; rail tankers.",39.780,-86.228,"3970 W 10th St, Indianapolis, IN 46222",25
Valley Proteins (Darling) - Linkwood Rendering,"East Coast UCO; third-party access.",38.540,-75.946,"5420 Linkwood Rd, Linkwood, MD 21835",18
BHT ReSources - Montgomery Plant,"Southern UCO rendering; handles yellow grease from collectors.",32.316,-86.237,"4041 Troy Hwy, Montgomery, AL 36116",12
Arrow Oils Ltd - Various Aggregation Sites,"US aggregation of UCO for export/biofuels; partners with independents.",N/A,N/A,"(Headquartered in UK, US ops in CA/TX)",10
ABP Food Group - US Rendering Facilities,"Processes fats/greases from collectors; biofuel supply.",41.878,-87.629,"(Ops in IL/CA; e.g., Chicago area)",18
Western Mass Rendering - Springfield Facility,"Northeast UCO aggregation/processing; eco-focused.",42.101,-72.589,"15 Mulligan Dr, Springfield, MA 01107",8
Reno Rendering - Reno Plant,"Waste oil rendering; handles UCO from local collectors.",39.529,-119.813,"105 Parr Blvd, Reno, NV 89512",10
JR Grease Services - Central Valley Facility,"Aggregates/renders UCO for biofuels.",36.746,-119.772,"(Ops in CA; e.g., Fresno area)",12
Amenico - Northeast Ops,"Renders used oils; pays collectors.",40.735,-74.172,"(Multiple in NY/NJ; e.g., Newark)",15
Chevron Renewable Energy Group (REG) - Geismar Renewable Diesel,"Major RD plant; UCO key feedstock.",30.238,-90.920,"3525 S Burnside Ave, Gonzales, LA 70737",340
Marathon Petroleum - Martinez Renewable Fuels,"Converted refinery; uses UCO/waste oils.",38.019,-122.134,"3485 Pacheco Blvd, Martinez, CA 94553",730
Phillips 66 - Rodeo Renewed,"RD production; fats/greases including UCO.",38.040,-122.255,"1380 San Pablo Ave, Rodeo, CA 94572",800
Cargill - West Fargo Biodiesel,"Uses UCO/yellow grease for biodiesel.",46.877,-96.878,"1801 7th Ave N, West Fargo, ND 58078",85
ADM - Velva Biodiesel,"Waste oils/UCO feedstock.",48.056,-100.929,"1441 47th St N, Velva, ND 58790",85
Diamond Green Diesel (Valero/Darling JV) - Norco Plant,"Major RD user of UCO/fats.",30.006,-90.410,"1600 River Rd, Norco, LA 70079",800
Diamond Green Diesel - Port Arthur Expansion,"UCO-heavy feedstock.",29.885,-93.958,"4700 TX-366, Port Arthur, TX 77642",470
Oleon (Avril Group) - Conroe Oleo Plant,"Uses fats/UCO for oleochemicals.",30.313,-95.456,"2410 TX-105, Conroe, TX 77301",50
Emery Oleochemicals - Cincinnati Plant,"Bio-based oleos from greases/UCO.",39.163,-84.526,"4900 Este Ave, Cincinnati, OH 45232",40
Vantage Specialty Chemicals - Chicago Oleo Facility,"Fats/greases processing; UCO inputs.",41.809,-87.655,"4650 S Racine Ave, Chicago, IL 60609",30
Twin Rivers Technologies - Quincy Plant,"Oleochemicals from waste oils.",42.251,-71.002,"780 Quincy St, Quincy, MA 02169",25
Pacific Biodiesel - Big Island Facility,"UCO to biodiesel; Hawaii focus.",19.942,-155.789,"69-201 Waikoloa Beach Dr, Waikoloa, HI 96738",5.7
RBF (Renewable Biofuels) - Port Neches Biodiesel,"Largest standalone biodiesel; UCO use.",29.982,-93.958,"6100 Nederland Ave, Port Neches, TX 77651",180